NORAD_CAT_ID,OBJECT_NAME,OBJECT_TYPE,EPOCH,MEAN_MOTION,ECCENTRICITY,INCLINATION,RA_OF_ASC_NODE,ARG_OF_PERICENTER,MEAN_ANOMALY,BSTAR,MEAN_MOTION_DOT,MEAN_MOTION_DDOT,TLE_LINE0,TLE_LINE1,TLE_LINE2,SEMIMAJOR_AXIS,PERIOD,APOGEE,PERIGEE,DECAYED
52131.0,STARLINK-3711,PAYLOAD,2023-10-14 14:10:04,15.08838046,0.0001326,53.2188,46.5752,86.7826,273.3318,7.3885e-05,8.88e-06,0.0,0 STARLINK-3711,1 52131U 22029AV  23287.59033486  .00000888  00000-0  73885-4 0  9996,2 52131  53.2188  46.5752 0001326  86.7826 273.3318 15.08838046 88522,6917.886,95.438,540.669,538.834,0.0
52131.0,STARLINK-3711,PAYLOAD,2023-10-14 15:45:27,15.08850978,0.0001393,53.2189,46.2768,84.3629,275.7522,6.8094e-05,7.96e-06,0.0,0 STARLINK-3711,1 52131U 22029AV  23287.65656703  .00000796  00000-0  68094-4 0  9990,2 52131  53.2189  46.2768 0001393  84.3629 275.7522 15.08850978 88538,6917.847,95.437,540.675,538.748,0.0
52131.0,STARLINK-3711,PAYLOAD,2023-10-15 12:25:29,15.08830096,0.0001565,53.219,42.4121,88.6143,271.5028,-2.5916e-05,-7e-06,0.0,0 STARLINK-3711,1 52131U 22029AV  23288.51770605 -.00000700  00000-0 -25916-4 0  9997,2 52131  53.2190  42.4121 0001565  88.6143 271.5028 15.08830096 88668,6917.911,95.438,540.858,538.693,0.0
52131.0,STARLINK-3711,PAYLOAD,2023-10-15 14:00:52,15.08830271,0.0001473,53.219,42.1135,95.9916,264.1244,-8.3323e-06,-4.21e-06,0.0,0 STARLINK-3711,1 52131U 22029AV  23288.58394482 -.00000421  00000-0 -83323-5 0  9996,2 52131  53.2190  42.1135 0001473  95.9916 264.1244 15.08830271 88671,6917.91,95.438,540.794,538.756,0.0
52131.0,STARLINK-3711,PAYLOAD,2023-10-16 12:16:16,15.08846548,0.0001485,53.2193,37.95,99.9113,260.2046,-2.2243e-05,-6.42e-06,0.0,0 STARLINK-3711,1 52131U 22029AV  23289.51129715 -.00000642  00000-0 -22243-4 0  9993,2 52131  53.2193  37.9500 0001485  99.9113 260.2046 15.08846548 88815,6917.86,95.437,540.753,538.698,0.0
52131.0,STARLINK-3711,PAYLOAD,2023-10-16 13:51:39,15.0884876,0.000152,53.2192,37.6526,100.7597,259.3566,-1.5062e-06,-3.12e-06,0.0,0 STARLINK-3711,1 52131U 22029AV  23289.57753476 -.00000312  00000-0 -15062-5 0  9992,2 52131  53.2192  37.6526 0001520 100.7597 259.3566 15.08848760 88821,6917.854,95.437,540.77,538.667,0.0
52131.0,STARLINK-3711,PAYLOAD,2023-10-17 13:42:26,15.0884016,0.0001533,53.22,33.1923,102.8876,257.2288,9.377e-05,1.205e-05,0.0,0 STARLINK-3711,1 52131U 22029AV  23290.57113672  .00001205  00000-0  93770-4 0  9993,2 52131  53.2200  33.1923 0001533 102.8876 257.2288 15.08840160 88970,6917.88,95.438,540.805,538.684,0.0
52131.0,STARLINK-3711,PAYLOAD,2023-10-18 10:22:27,15.08836729,0.0001637,53.2198,29.3285,95.6607,264.4571,-3.0448e-05,-7.73e-06,0.0,0 STARLINK-3711,1 52131U 22029AV  23291.43226484 -.00000773  00000-0 -30448-4 0  9999,2 52131  53.2198  29.3285 0001637  95.6607 264.4571 15.08836729 89107,6917.89,95.438,540.888,538.623,0.0
52131.0,STARLINK-3711,PAYLOAD,2023-10-18 13:33:13,15.08841342,0.0001768,53.219,28.7371,83.4725,276.6468,-4.9201e-06,-3.66e-06,0.0,0 STARLINK-3711,1 52131U 22029AV  23291.56474262 -.00000366  00000-0 -49201-5 0  9998,2 52131  53.2190  28.7371 0001768  83.4725 276.6468 15.08841342 89128,6917.876,95.437,540.964,538.518,0.0
52131.0,STARLINK-3711,PAYLOAD,2023-10-19 11:48:38,15.08831089,0.0001606,53.2197,24.5728,91.1823,268.9353,-5.0711e-05,-1.095e-05,0.0,0 STARLINK-3711,1 52131U 22029AV  23292.49211367 -.00001095  00000-0 -50711-4 0  9993,2 52131  53.2197  24.5728 0001606  91.1823 268.9353 15.08831089 89260,6917.908,95.438,540.884,538.662,0.0
52131.0,STARLINK-3711,PAYLOAD,2023-10-19 22:56:20,15.08837114,0.0001559,53.2188,22.4906,85.7779,274.3391,3.8846e-05,3.3e-06,0.0,0 STARLINK-3711,1 52131U 22029AV  23292.95578819  .00000330  00000-0  38846-4 0  9996,2 52131  53.2188  22.4906 0001559  85.7779 274.3391 15.08837114 89337,6917.889,95.438,540.833,538.676,0.0
52131.0,STARLINK-3711,PAYLOAD,2023-10-20 13:14:47,15.08851831,0.0001336,53.2181,19.8133,86.81,273.3045,0.00013491,1.86e-05,0.0,0 STARLINK-3711,1 52131U 22029AV  23293.55193496  .00001860  00000-0  13491-3 0  9994,2 52131  53.2181  19.8133 0001336  86.8100 273.3045 15.08851831 89422,6917.844,95.437,540.633,538.785,0.0
52131.0,STARLINK-3711,PAYLOAD,2023-10-20 14:50:10,15.08852176,0.0001346,53.2181,19.516,87.3292,272.7854,0.00013565,1.872e-05,0.0,0 STARLINK-3711,1 52131U 22029AV  23293.61817430  .00001872  00000-0  13565-3 0  9997,2 52131  53.2181  19.5160 0001346  87.3292 272.7854 15.08852176 89433,6917.843,95.437,540.639,538.777,0.0
52131.0,STARLINK-3711,PAYLOAD,2023-10-21 11:30:12,15.08841374,0.0001731,53.2192,15.6498,101.9074,258.2112,4.1739e-05,3.76e-06,0.0,0 STARLINK-3711,1 52131U 22029AV  23294.47930614  .00000376  00000-0  41739-4 0  9995,2 52131  53.2192  15.6498 0001731 101.9074 258.2112 15.08841374 89563,6917.876,95.437,540.939,538.544,0.0
52131.0,STARLINK-3711,PAYLOAD,2023-10-22 12:56:21,15.08851699,0.0001432,53.2187,10.8923,81.8082,278.3072,-5.3781e-05,-1.144e-05,0.0,0 STARLINK-3711,1 52131U 22029AV  23295.53914239 -.00001144  00000-0 -53781-4 0  9994,2 52131  53.2187  10.8923 0001432  81.8082 278.3072 15.08851699 89727,6917.845,95.437,540.7,538.719,0.0
52131.0,STARLINK-3711,PAYLOAD,2023-10-22 22:28:41,15.08845101,0.0001549,53.219,9.1093,79.5614,280.5553,-9.5225e-05,-1.803e-05,0.0,0 STARLINK-3711,1 52131U 22029AV  23295.93658696 -.00001803  00000-0 -95225-4 0  9991,2 52131  53.2190   9.1093 0001549  79.5614 280.5553 15.08845101 89780,6917.865,95.437,540.801,538.658,0.0
52131.0,STARLINK-3711,PAYLOAD,2023-10-23 22:19:28,15.08839655,0.0001537,53.2185,4.6466,86.1513,273.9655,8.0221e-06,-1.6e-06,0.0,0 STARLINK-3711,1 52131U 22029AV  23296.93018781 -.00000160  00000-0  80221-5 0  9992,2 52131  53.2185   4.6466 0001537  86.1513 273.9655 15.08839655 89930,6917.881,95.438,540.81,538.683,0.0
52131.0,STARLINK-3711,PAYLOAD,2023-10-24 11:02:33,15.08841646,0.0001597,53.219,2.2658,97.3156,262.8018,-5.1974e-06,-3.71e-06,0.0,0 STARLINK-3711,1 52131U 22029AV  23297.46010780 -.00000371  00000-0 -51974-5 0  9990,2 52131  53.2190   2.2658 0001597  97.3156 262.8018 15.08841646 90010,6917.875,95.437,540.845,538.636,0.0
52131.0,STARLINK-3711,PAYLOAD,2023-10-25 10:53:20,15.08841237,0.000157,53.2183,357.8071,100.2041,259.9129,2.3936e-05,9.3e-07,0.0,0 STARLINK-3711,1 52131U 22029AV  23298.45370712  .00000093  00000-0  23936-4 0  9999,2 52131  53.2183 357.8071 0001570 100.2041 259.9129 15.08841237 90160,6917.877,95.437,540.828,538.656,0.0
52131.0,STARLINK-3711,PAYLOAD,2023-10-26 04:22:35,15.08835227,0.0001621,53.2188,354.5361,107.205,252.9119,-1.1372e-05,-4.69e-06,0.0,0 STARLINK-3711,1 52131U 22029AV  23299.18235236 -.00000469  00000-0 -11372-4 0  9991,2 52131  53.2188 354.5361 0001621 107.2050 252.9119 15.08835227 90271,6917.895,95.438,540.881,538.639,0.0
52131.0,STARLINK-3711,PAYLOAD,2023-10-26 10:44:07,15.08840548,0.0001457,53.2182,353.3485,97.5299,262.5859,-3.0472e-05,-7.73e-06,0.0,0 STARLINK-3711,1 52131U 22029AV  23299.44731080 -.00000773  00000-0 -30472-4 0  9998,2 52131  53.2182 353.3485 0001457  97.5299 262.5859 15.08840548 90317,6917.879,95.438,540.752,538.736,0.0
52131.0,STARLINK-3711,PAYLOAD,2023-10-26 20:16:26,15.08843483,0.0001482,53.2185,351.565,96.7693,263.3468,-4.9139e-05,-1.07e-05,0.0,0 STARLINK-3711,1 52131U 22029AV  23299.84474919 -.00001070  00000-0 -49139-4 0  9998,2 52131  53.2185 351.5650 0001482  96.7693 263.3468 15.08843483 90373,6917.87,95.437,540.76,538.71,0.0
52131.0,STARLINK-3711,PAYLOAD,2023-10-27 02:37:58,15.08846186,0.0001705,53.2173,350.3737,104.9127,255.2054,-3.2394e-05,-8.04e-06,0.0,0 STARLINK-3711,1 52131U 22029AV  23300.10970742 -.00000804  00000-0 -32394-4 0  9994,2 52131  53.2173 350.3737 0001705 104.9127 255.2054 15.08846186 90414,6917.861,95.437,540.906,538.547,0.0
52131.0,STARLINK-3711,PAYLOAD,2023-10-27 12:10:16,15.08851947,0.0001384,53.2182,348.5908,95.607,264.508,0.00010744,1.423e-05,0.0,0 STARLINK-3711,1 52131U 22029AV  23300.50713641  .00001423  00000-0  10744-3 0  9991,2 52131  53.2182 348.5908 0001384  95.6070 264.5080 15.08851947 90478,6917.844,95.437,540.666,538.751,0.0
52131.0,STARLINK-3711,PAYLOAD,2023-10-27 20:07:13,15.08840895,0.0001513,53.2182,347.1034,84.0463,276.0702,2.5574e-05,1.19e-06,0.0,0 STARLINK-3711,1 52131U 22029AV  23300.83834548  .00000119  00000-0  25574-4 0  9996,2 52131  53.2182 347.1034 0001513  84.0463 276.0702 15.08840895 90520,6917.878,95.437,540.789,538.696,0.0
52131.0,STARLINK-3711,PAYLOAD,2023-10-28 10:25:42,15.08825945,0.0001545,53.2173,344.4272,76.6444,283.4721,-9.8447e-05,-1.854e-05,0.0,0 STARLINK-3711,1 52131U 22029AV  23301.43452356 -.00001854  00000-0 -98447-4 0  9994,2 52131  53.2173 344.4272 0001545  76.6444 283.4721 15.08825945 90617,6917.923,95.438,540.857,538.72,0.0
52131.0,STARLINK-3711,PAYLOAD,2023-10-28 19:58:01,15.08835123,0.0001552,53.2175,342.6429,81.512,278.6048,-2.7498e-05,-7.26e-06,0.0,0 STARLINK-3711,1 52131U 22029AV  23301.83195685 -.00000726  00000-0 -27498-4 0  9992,2 52131  53.2175 342.6429 0001552  81.5120 278.6048 15.08835123 90670,6917.895,95.438,540.834,538.687,0.0
52131.0,STARLINK-3711,PAYLOAD,2023-10-29 02:19:34,15.08809613,0.000163,53.2174,341.4519,87.5023,272.6155,0.00021273,3.096e-05,0.0,0 STARLINK-3711,1 52131U 22029AV  23302.09692343  .00003096  00000-0  21273-3 0  9999,2 52131  53.2174 341.4519 0001630  87.5023 272.6155 15.08809613 90714,6917.973,95.439,540.966,538.711,0.0
52131.0,STARLINK-3711,PAYLOAD,2023-10-29 11:51:50,15.08862569,0.0001376,53.2173,339.6664,80.1818,279.933,5.1937e-05,5.39e-06,0.0,0 STARLINK-3711,1 52131U 22029AV  23302.49433432  .00000539  00000-0  51937-4 0  9995,2 52131  53.2173 339.6664 0001376  80.1818 279.9330 15.08862569 90771,6917.811,95.436,540.628,538.725,0.0
52131.0,STARLINK-3711,PAYLOAD,2023-10-30 02:10:20,15.08823523,0.0001588,53.2177,336.9932,77.1882,282.9288,8.6358e-05,1.086e-05,0.0,0 STARLINK-3711,1 52131U 22029AV  23303.09051797  .00001086  00000-0  86358-4 0  9995,2 52131  53.2177 336.9932 0001588  77.1882 282.9288 15.08823523 90868,6917.931,95.439,540.894,538.697,0.0
